{"type": "FeatureCollection", "features": [ {"type": "Feature", "properties": {"norad_id": 66795, "name": "STARLINK-36047", "group": "last-30-days", "lat": -41.73425302246753, "lon": 136.53610654240194, "alt_km": 312.55929439036936, "timestamp": "2025-12-14T03:55:51.549128+00:00", "meta": {"OBJECT_NAME": "STARLINK-36047", "OBJECT_ID": "2025-278E", "EPOCH": "2025-12-13T02:40:44.374080", "MEAN_MOTION": 15.86556765, "ECCENTRICITY": 0.00037426, "INCLINATION": 42.9975, "RA_OF_ASC_NODE": 249.819, "ARG_OF_PERICENTER": 290.0872, "MEAN_ANOMALY": 69.9598, "EPHEMERIS_TYPE": 0, "CLASSIFICATION_TYPE": "U", "NORAD_CAT_ID": 66795, "ELEMENT_SET_NO": 999, "REV_AT_EPOCH": 189, "BSTAR": 0.00050264133, "MEAN_MOTION_DOT": 0.00133034, "MEAN_MOTION_DDOT": 0}, "tle": {"line1": "1 66795U 25278E   25347.11162470  .00133034  00000+0  50264-3 0  9993", "line2": "2 66795  42.9975 249.8190 0003742 290.0872  69.9598 15.86556765  1896"}}, "geometry": {"type": "Point", "coordinates": [136.53610654240194, -41.73425302246753]}}, {"type": "Feature", "properties": {"norad_id": 66796, "name": "STARLINK-35964", "group": "last-30-days", "lat": -42.7239494419841, "lon": 159.92688265692797, "alt_km": 280.72160395315404, "timestamp": "2025-12-14T03:55:51.549138+00:00", "meta": {"OBJECT_NAME": "STARLINK-35964", "OBJECT_ID": "2025-278F", "EPOCH": "2025-12-13T04:17:33.234432", "MEAN_MOTION": 15.99418143, "ECCENTRICITY": 0.00042425, "INCLINATION": 42.9949, "RA_OF_ASC_NODE": 248.5513, "ARG_OF_PERICENTER": 246.4999, "MEAN_ANOMALY": 113.5434, "EPHEMERIS_TYPE": 0, "CLASSIFICATION_TYPE": "U", "NORAD_CAT_ID": 66796, "ELEMENT_SET_NO": 999, "REV_AT_EPOCH": 191, "BSTAR": -0.0015645026, "MEAN_MOTION_DOT": -0.00809252, "MEAN_MOTION_DDOT": 0.00022176829}, "tle": {"line1": "1 66796U 25278F   25347.17885688 -.00809252  22177-3 -15645-2 0  9993", "line2": "2 66796  42.9949 248.5513 0004242 246.4999 113.5434 15.99418143  1913"}}, "geometry": {"type": "Point", "coordinates": [159.92688265692797, -42.7239494419841]}}, {"type": "Feature", "properties": {"norad_id": 66797, "name": "STARLINK-36099", "group": "last-30-days", "lat": -42.64204166624992, "lon": 144.5459405367957, "alt_km": 312.0990122328676, "timestamp": "2025-12-14T03:55:51.549148+00:00", "meta": {"OBJECT_NAME": "STARLINK-36099", "OBJECT_ID": "2025-278G", "EPOCH": "2025-12-13T02:39:20.871936", "MEAN_MOTION": 15.86593561, "ECCENTRICITY": 0.00038292, "INCLINATION": 42.9983, "RA_OF_ASC_NODE": 249.8093, "ARG_OF_PERICENTER": 302.0122, "MEAN_ANOMALY": 58.0379, "EPHEMERIS_TYPE": 0, "CLASSIFICATION_TYPE": "U", "NORAD_CAT_ID": 66797, "ELEMENT_SET_NO": 999, "REV_AT_EPOCH": 189, "BSTAR": 0.0008369452, "MEAN_MOTION_DOT": 0.00224629, "MEAN_MOTION_DDOT": 0}, "tle": {"line1": "1 66797U 25278G   25347.11065824  .00224629  00000+0  83695-3 0  9995", "line2": "2 66797  42.9983 249.8093 0003829 302.0122  58.0379 15.86593561  1898"}}, "geometry": {"type": "Point", "coordinates": [144.5459405367957, -42.64204166624992]}}, {"type": "Feature", "properties": {"norad_id": 66798, "name": "STARLINK-36041", "group": "last-30-days", "lat": -42.85332850347889, "lon": 147.9804176283076, "alt_km": 312.2987292608095, "timestamp": "2025-12-14T03:55:51.549160+00:00", "meta": {"OBJECT_NAME": "STARLINK-36041", "OBJECT_ID": "2025-278H", "EPOCH": "2025-12-13T02:38:50.019360", "MEAN_MOTION": 15.86626076, "ECCENTRICITY": 0.00035632, "INCLINATION": 42.9978, "RA_OF_ASC_NODE": 249.8079, "ARG_OF_PERICENTER": 326.4211, "MEAN_ANOMALY": 33.6436, "EPHEMERIS_TYPE": 0, "CLASSIFICATION_TYPE": "U", "NORAD_CAT_ID": 66798, "ELEMENT_SET_NO": 999, "REV_AT_EPOCH": 189, "BSTAR": 0.0011741183, "MEAN_MOTION_DOT": 0.00319266, "MEAN_MOTION_DDOT": 0}, "tle": {"line1": "1 66798U 25278H   25347.11030115  .00319266  00000+0  11741-2 0  9995", "line2": "2 66798  42.9978 249.8079 0003563 326.4211  33.6436 15.86626076  1892"}}, "geometry": {"type": "Point", "coordinates": [147.9804176283076, -42.85332850347889]}}, {"type": "Feature", "properties": {"norad_id": 66799, "name": "STARLINK-36044", "group": "last-30-days", "lat": -42.91905625406376, "lon": 149.68483121436557, "alt_km": 314.3593589186012, "timestamp": "2025-12-14T03:55:51.549172+00:00", "meta": {"OBJECT_NAME": "STARLINK-36044", "OBJECT_ID": "2025-278J", "EPOCH": "2025-12-13T02:38:14.686944", "MEAN_MOTION": 15.86559608, "ECCENTRICITY": 0.00038293, "INCLINATION": 42.997, "RA_OF_ASC_NODE": 249.8048, "ARG_OF_PERICENTER": 343.7297, "MEAN_ANOMALY": 16.3453, "EPHEMERIS_TYPE": 0, "CLASSIFICATION_TYPE": "U", "NORAD_CAT_ID": 66799, "ELEMENT_SET_NO": 999, "REV_AT_EPOCH": 189, "BSTAR": 0.00039337401, "MEAN_MOTION_DOT": 0.00103659, "MEAN_MOTION_DDOT": 0}, "tle": {"line1": "1 66799U 25278J   25347.10989221  .00103659  00000+0  39337-3 0  9995", "line2": "2 66799  42.9970 249.8048 0003829 343.7297  16.3453 15.86559608  1895"}}, "geometry": {"type": "Point", "coordinates": [149.68483121436557, -42.91905625406376]}}, {"type": "Feature", "properties": {"norad_id": 66800, "name": "STARLINK-35996", "group": "last-30-days", "lat": -42.94324510318133, "lon": 156.03400294613542, "alt_km": 312.89296335811923, "timestamp": "2025-12-14T03:55:51.549182+00:00", "meta": {"OBJECT_NAME": "STARLINK-35996", "OBJECT_ID": "2025-278K", "EPOCH": "2025-12-13T02:37:03.244512", "MEAN_MOTION": 15.86576261, "ECCENTRICITY": 0.00032606, "INCLINATION": 42.9972, "RA_OF_ASC_NODE": 249.7977, "ARG_OF_PERICENTER": 292.0584, "MEAN_ANOMALY": 67.9943, "EPHEMERIS_TYPE": 0, "CLASSIFICATION_TYPE": "U", "NORAD_CAT_ID": 66800, "ELEMENT_SET_NO": 999, "REV_AT_EPOCH": 189, "BSTAR": 0.00026817982, "MEAN_MOTION_DOT": 0.00070265, "MEAN_MOTION_DDOT": 0}, "tle": {"line1": "1 66800U 25278K   25347.10906533  .00070265  00000+0  26818-3 0  9999", "line2": "2 66800  42.9972 249.7977 0003260 292.0584  67.9943 15.86576261  1894"}}, "geometry": {"type": "Point", "coordinates": [156.03400294613542, -42.94324510318133]}}, {"type": "Feature", "properties": {"norad_id": 66801, "name": "STARLINK-36080", "group": "last-30-days", "lat": -42.11605957313651, "lon": 167.2600290203395, "alt_km": 317.5024997229748, "timestamp": "2025-12-14T03:55:51.549192+00:00", "meta": {"OBJECT_NAME": "STARLINK-36080", "OBJECT_ID": "2025-278L", "EPOCH": "2025-12-13T04:04:48.475200", "MEAN_MOTION": 15.86249052, "ECCENTRICITY": 0.00021649, "INCLINATION": 42.9972, "RA_OF_ASC_NODE": 249.3919, "ARG_OF_PERICENTER": 305.292, "MEAN_ANOMALY": 54.775, "EPHEMERIS_TYPE": 0, "CLASSIFICATION_TYPE": "U", "NORAD_CAT_ID": 66801, "ELEMENT_SET_NO": 999, "REV_AT_EPOCH": 190, "BSTAR": -0.0019026268, "MEAN_MOTION_DOT": -0.00466175, "MEAN_MOTION_DDOT": 0}, "tle": {"line1": "1 66801U 25278L   25347.17000550 -.00466175  00000+0 -19026-2 0  9994", "line2": "2 66801  42.9972 249.3919 0002164 305.2920  54.7750 15.86249052  1907"}}, "geometry": {"type": "Point", "coordinates": [167.2600290203395, -42.11605957313651]}}, {"type": "Feature", "properties": {"norad_id": 66802, "name": "STARLINK-35604", "group": "last-30-days", "lat": -42.784315220642526, "lon": 146.675355724156, "alt_km": 325.79208254681544, "timestamp": "2025-12-14T03:55:51.549202+00:00", "meta": {"OBJECT_NAME": "STARLINK-35604", "OBJECT_ID": "2025-278M", "EPOCH": "2025-12-12T19:03:50.216544", "MEAN_MOTION": 15.88185477, "ECCENTRICITY": 0.00024924, "INCLINATION": 42.9971, "RA_OF_ASC_NODE": 251.7403, "ARG_OF_PERICENTER": 313.5703, "MEAN_ANOMALY": 46.4964, "EPHEMERIS_TYPE": 0, "CLASSIFICATION_TYPE": "U", "NORAD_CAT_ID": 66802, "ELEMENT_SET_NO": 999, "REV_AT_EPOCH": 184, "BSTAR": -0.0082672322, "MEAN_MOTION_DOT": -0.020362, "MEAN_MOTION_DDOT": 0}, "tle": {"line1": "1 66802U 25278M   25346.79433121 -.02036200  00000+0 -82672-2 0  9997", "line2": "2 66802  42.9971 251.7403 0002492 313.5703  46.4964 15.88185477  1847"}}, "geometry": {"type": "Point", "coordinates": [146.675355724156, -42.784315220642526]}}, {"type": "Feature", "properties": {"norad_id": 66803, "name": "STARLINK-35565", "group": "last-30-days", "lat": -42.968613877575336, "lon": 151.95943396451204, "alt_km": 325.1478564439976, "timestamp": "2025-12-14T03:55:51.549212+00:00", "meta": {"OBJECT_NAME": "STARLINK-35565", "OBJECT_ID": "2025-278N", "EPOCH": "2025-12-12T19:02:38.302368", "MEAN_MOTION": 15.88166969, "ECCENTRICITY": 0.00047766, "INCLINATION": 42.9974, "RA_OF_ASC_NODE": 251.7329, "ARG_OF_PERICENTER": 311.8639, "MEAN_ANOMALY": 48.1827, "EPHEMERIS_TYPE": 0, "CLASSIFICATION_TYPE": "U", "NORAD_CAT_ID": 66803, "ELEMENT_SET_NO": 999, "REV_AT_EPOCH": 184, "BSTAR": -0.0087251966, "MEAN_MOTION_DOT": -0.02134789, "MEAN_MOTION_DDOT": 0}, "tle": {"line1": "1 66803U 25278N   25346.79349887 -.02134789  00000+0 -87252-2 0  9993", "line2": "2 66803  42.9974 251.7329 0004776 311.8639  48.1827 15.88166969  1846"}}, "geometry": {"type": "Point", "coordinates": [151.95943396451204, -42.968613877575336]}}, {"type": "Feature", "properties": {"norad_id": 66804, "name": "STARLINK-36038", "group": "last-30-days", "lat": -41.60009296177597, "lon": 170.91469663379917, "alt_km": 307.52550971869823, "timestamp": "2025-12-14T03:55:51.549222+00:00", "meta": {"OBJECT_NAME": "STARLINK-36038", "OBJECT_ID": "2025-278P", "EPOCH": "2025-12-13T02:35:39.395904", "MEAN_MOTION": 15.87407375, "ECCENTRICITY": 0.00024163, "INCLINATION": 42.9972, "RA_OF_ASC_NODE": 249.7898, "ARG_OF_PERICENTER": 257.1775, "MEAN_ANOMALY": 102.8828, "EPHEMERIS_TYPE": 0, "CLASSIFICATION_TYPE": "U", "NORAD_CAT_ID": 66804, "ELEMENT_SET_NO": 999, "REV_AT_EPOCH": 189, "BSTAR": 0.00235919, "MEAN_MOTION_DOT": 0.00696674, "MEAN_MOTION_DDOT": 0}, "tle": {"line1": "1 66804U 25278P   25347.10809486  .00696674  00000+0  23592-2 0  9995", "line2": "2 66804  42.9972 249.7898 0002416 257.1775 102.8828 15.87407375  1897"}}, "geometry": {"type": "Point", "coordinates": [170.91469663379917, -41.60009296177597]}}]}